start=new Date('2021-12-21T00:00:00.000Z').valueOf();
sats=[{"RCS_SIZE":"LARGE","PERIOD":"95.592","RA_OF_ASC_NODE":"100.0138","ARG_OF_PERICENTER":"97.9821","OBJECT_TYPE":"PAYLOAD","TLE_LINE1":"1 45217U 20012AR  21354.67527657  .00001566  00000-0  12396-3 0  9996","REF_FRAME":"TEME","APOAPSIS":"548.133","LAUNCH_DATE":"2020-02-17","OBJECT_NAME":"STARLINK-1271","EPOCH":"2021-12-20T16:12:23.895648","MEAN_MOTION_DOT":"0.00001566","MEAN_MOTION_DDOT":"0.0000000000000","BSTAR":"0.00012396000000","GP_ID":"192110052","NORAD_CAT_ID":"45217","ELEMENT_SET_NO":"999","OBJECT_ID":"2020-012AR","ECCENTRICITY":"0.00013390","PERIAPSIS":"546.278","INCLINATION":"53.0550","EPHEMERIS_TYPE":"0","SITE":"AFETR","MEAN_ELEMENT_THEORY":"SGP4","REV_AT_EPOCH":"10300","SEMIMAJOR_AXIS":"6925.341","CLASSIFICATION_TYPE":"U","DECAY_DATE":null,"FILE":"3245895","CENTER_NAME":"EARTH","TIME_SYSTEM":"UTC","COUNTRY_CODE":"US","TLE_LINE2":"2 45217  53.0550 100.0138 0001339  97.9821 262.1320 15.06402550103002","MEAN_MOTION":"15.06402550","MEAN_ANOMALY":"262.1320"},{"NORAD_CAT_ID":"45219","GP_ID":"192111303","BSTAR":"0.00001269300000","PERIAPSIS":"546.334","ECCENTRICITY":"0.00012630","OBJECT_ID":"2020-012AT","ELEMENT_SET_NO":"999","APOAPSIS":"548.083","MEAN_MOTION_DDOT":"0.0000000000000","MEAN_MOTION_DOT":"-0.00000092","EPOCH":"2021-12-20T17:45:15.999264","LAUNCH_DATE":"2020-02-17","OBJECT_NAME":"STARLINK-1187","REF_FRAME":"TEME","RCS_SIZE":"LARGE","TLE_LINE1":"1 45219U 20012AT  21354.73976851 -.00000092  00000-0  12693-4 0  9994","OBJECT_TYPE":"PAYLOAD","ARG_OF_PERICENTER":"92.3308","RA_OF_ASC_NODE":"79.7227","PERIOD":"95.592","MEAN_ANOMALY":"267.7826","MEAN_MOTION":"15.06401579","TIME_SYSTEM":"UTC","CENTER_NAME":"EARTH","TLE_LINE2":"2 45219  53.0555  79.7227 0001263  92.3308 267.7826 15.06401579103300","COUNTRY_CODE":"US","CLASSIFICATION_TYPE":"U","SEMIMAJOR_AXIS":"6925.344","FILE":"3245895","DECAY_DATE":null,"MEAN_ELEMENT_THEORY":"SGP4","SITE":"AFETR","EPHEMERIS_TYPE":"0","INCLINATION":"53.0555","REV_AT_EPOCH":"10330"},{"CLASSIFICATION_TYPE":"U","SEMIMAJOR_AXIS":"6657.519","FILE":"3245983","DECAY_DATE":null,"MEAN_ELEMENT_THEORY":"SGP4","SITE":"AFETR","EPHEMERIS_TYPE":"0","INCLINATION":"53.0469","REV_AT_EPOCH":"10320","MEAN_MOTION":"15.98211076","MEAN_ANOMALY":"290.0325","TIME_SYSTEM":"UTC","CENTER_NAME":"EARTH","TLE_LINE2":"2 45220  53.0469  18.9326 0004095  71.0955 290.0325 15.98211076103203","COUNTRY_CODE":"US","REF_FRAME":"TEME","RCS_SIZE":"LARGE","TLE_LINE1":"1 45220U 20012AU  21354.88876365  .01635664  15269-2  35219-2 0  9992","OBJECT_TYPE":"PAYLOAD","ARG_OF_PERICENTER":"71.0955","RA_OF_ASC_NODE":"18.9326","PERIOD":"90.101","GP_ID":"192115365","NORAD_CAT_ID":"45220","BSTAR":"0.00352190000000","PERIAPSIS":"276.658","ECCENTRICITY":"0.00040950","ELEMENT_SET_NO":"999","OBJECT_ID":"2020-012AU","APOAPSIS":"282.110","MEAN_MOTION_DDOT":"0.0015269000000","MEAN_MOTION_DOT":"0.01635664","EPOCH":"2021-12-20T21:19:49.179360","OBJECT_NAME":"STARLINK-1188","LAUNCH_DATE":"2020-02-17"},{"REF_FRAME":"TEME","PERIOD":"95.592","RA_OF_ASC_NODE":"80.0084","ARG_OF_PERICENTER":"81.6155","OBJECT_TYPE":"PAYLOAD","TLE_LINE1":"1 45221U 20012AV  21354.67710838  .00003184  00000-0  23248-3 0  9992","RCS_SIZE":"LARGE","ELEMENT_SET_NO":"999","OBJECT_ID":"2020-012AV","ECCENTRICITY":"0.00011230","PERIAPSIS":"546.413","BSTAR":"0.00023248000000","GP_ID":"192110302","NORAD_CAT_ID":"45221","OBJECT_NAME":"STARLINK-1189","LAUNCH_DATE":"2020-02-17","EPOCH":"2021-12-20T16:15:02.164032","MEAN_MOTION_DOT":"0.00003184","MEAN_MOTION_DDOT":"0.0000000000000","APOAPSIS":"547.968","DECAY_DATE":null,"FILE":"3245895","SEMIMAJOR_AXIS":"6925.325","CLASSIFICATION_TYPE":"U","REV_AT_EPOCH":"10328","INCLINATION":"53.0550","EPHEMERIS_TYPE":"0","SITE":"AFETR","MEAN_ELEMENT_THEORY":"SGP4","MEAN_MOTION":"15.06407583","MEAN_ANOMALY":"278.4961","COUNTRY_CODE":"US","TLE_LINE2":"2 45221  53.0550  80.0084 0001123  81.6155 278.4961 15.06407583103287","CENTER_NAME":"EARTH","TIME_SYSTEM":"UTC"},{"REV_AT_EPOCH":"10329","MEAN_ELEMENT_THEORY":"SGP4","INCLINATION":"53.0551","SITE":"AFETR","EPHEMERIS_TYPE":"0","FILE":"3245895","DECAY_DATE":null,"CLASSIFICATION_TYPE":"U","SEMIMAJOR_AXIS":"6925.304","TLE_LINE2":"2 45222  53.0551  79.6845 0001145  88.2947 271.8173 15.06414562103292","COUNTRY_CODE":"US","TIME_SYSTEM":"UTC","CENTER_NAME":"EARTH","MEAN_MOTION":"15.06414562","MEAN_ANOMALY":"271.8173","ARG_OF_PERICENTER":"88.2947","OBJECT_TYPE":"PAYLOAD","TLE_LINE1":"1 45222U 20012AW  21354.75082613  .00011146  00000-0  76566-3 0  9993","PERIOD":"95.591","RA_OF_ASC_NODE":"79.6845","RCS_SIZE":"LARGE","REF_FRAME":"TEME","MEAN_MOTION_DOT":"0.00011146","MEAN_MOTION_DDOT":"0.0000000000000","OBJECT_NAME":"STARLINK-1191","LAUNCH_DATE":"2020-02-17","EPOCH":"2021-12-20T18:01:11.377632","APOAPSIS":"547.962","ECCENTRICITY":"0.00011450","PERIAPSIS":"546.376","ELEMENT_SET_NO":"999","OBJECT_ID":"2020-012AW","BSTAR":"0.00076566000000","GP_ID":"192110552","NORAD_CAT_ID":"45222"},{"MEAN_MOTION_DDOT":"0.0000000000000","MEAN_MOTION_DOT":"0.00001300","EPOCH":"2021-12-20T15:21:57.257856","OBJECT_NAME":"STARLINK-1212","LAUNCH_DATE":"2020-02-17","APOAPSIS":"548.225","PERIAPSIS":"546.174","ECCENTRICITY":"0.00014810","ELEMENT_SET_NO":"999","OBJECT_ID":"2020-012AX","NORAD_CAT_ID":"45223","GP_ID":"192110804","BSTAR":"0.00010614000000","OBJECT_TYPE":"PAYLOAD","TLE_LINE1":"1 45223U 20012AX  21354.64024604  .00001300  00000-0  10614-3 0  9991","ARG_OF_PERICENTER":"91.1551","RA_OF_ASC_NODE":"80.1815","PERIOD":"95.592","RCS_SIZE":"LARGE","REF_FRAME":"TEME","TLE_LINE2":"2 45223  53.0569  80.1815 0001481  91.1551 268.9608 15.06404599103281","COUNTRY_CODE":"US","TIME_SYSTEM":"UTC","CENTER_NAME":"EARTH","MEAN_MOTION":"15.06404599","MEAN_ANOMALY":"268.9608","REV_AT_EPOCH":"10328","MEAN_ELEMENT_THEORY":"SGP4","EPHEMERIS_TYPE":"0","SITE":"AFETR","INCLINATION":"53.0569","FILE":"3245895","DECAY_DATE":null,"CLASSIFICATION_TYPE":"U","SEMIMAJOR_AXIS":"6925.334"},{"COUNTRY_CODE":"US","TLE_LINE2":"2 45224  53.0510 351.9068 0002949  17.9464 342.1659 15.76769515104377","CENTER_NAME":"EARTH","TIME_SYSTEM":"UTC","MEAN_MOTION":"15.76769515","MEAN_ANOMALY":"342.1659","REV_AT_EPOCH":"10437","SITE":"AFETR","EPHEMERIS_TYPE":"0","INCLINATION":"53.0510","MEAN_ELEMENT_THEORY":"SGP4","DECAY_DATE":null,"FILE":"3245363","SEMIMAJOR_AXIS":"6717.738","CLASSIFICATION_TYPE":"U","EPOCH":"2021-12-20T08:33:02.115072","LAUNCH_DATE":"2020-02-17","OBJECT_NAME":"STARLINK-1214","MEAN_MOTION_DDOT":"0.0000000000000","MEAN_MOTION_DOT":"0.00027216","APOAPSIS":"341.584","OBJECT_ID":"2020-012AY","ELEMENT_SET_NO":"999","PERIAPSIS":"337.621","ECCENTRICITY":"0.00029490","BSTAR":"0.00016941000000","GP_ID":"192076710","NORAD_CAT_ID":"45224","RA_OF_ASC_NODE":"351.9068","PERIOD":"91.326","TLE_LINE1":"1 45224U 20012AY  21354.35627448  .00027216  00000-0  16941-3 0  9998","OBJECT_TYPE":"PAYLOAD","ARG_OF_PERICENTER":"17.9464","RCS_SIZE":"LARGE","REF_FRAME":"TEME"},{"APOAPSIS":"548.125","MEAN_MOTION_DDOT":"0.0000000000000","MEAN_MOTION_DOT":"0.00002266","EPOCH":"2021-12-20T17:24:01.612224","OBJECT_NAME":"STARLINK-1215","LAUNCH_DATE":"2020-02-17","NORAD_CAT_ID":"45225","GP_ID":"192109803","BSTAR":"0.00017091000000","PERIAPSIS":"546.262","ECCENTRICITY":"0.00013450","OBJECT_ID":"2020-012AZ","ELEMENT_SET_NO":"999","RCS_SIZE":"LARGE","OBJECT_TYPE":"PAYLOAD","TLE_LINE1":"1 45225U 20012AZ  21354.72501866  .00002266  00000-0  17091-3 0  9990","ARG_OF_PERICENTER":"91.2051","RA_OF_ASC_NODE":"79.7792","PERIOD":"95.592","REF_FRAME":"TEME","TIME_SYSTEM":"UTC","CENTER_NAME":"EARTH","TLE_LINE2":"2 45225  53.0551  79.7792 0001345  91.2051 268.9093 15.06406537103245","COUNTRY_CODE":"US","MEAN_MOTION":"15.06406537","MEAN_ANOMALY":"268.9093","MEAN_ELEMENT_THEORY":"SGP4","SITE":"AFETR","EPHEMERIS_TYPE":"0","INCLINATION":"53.0551","REV_AT_EPOCH":"10324","CLASSIFICATION_TYPE":"U","SEMIMAJOR_AXIS":"6925.329","FILE":"3245895","DECAY_DATE":null},{"RCS_SIZE":"LARGE","OBJECT_TYPE":"PAYLOAD","TLE_LINE1":"1 45226U 20012BA  21354.53335601  .00000304  00000-0  39279-4 0  9996","ARG_OF_PERICENTER":"92.5451","RA_OF_ASC_NODE":"80.6460","PERIOD":"95.592","REF_FRAME":"TEME","APOAPSIS":"547.930","MEAN_MOTION_DDOT":"0.0000000000000","MEAN_MOTION_DOT":"0.00000304","EPOCH":"2021-12-20T12:48:01.959264","LAUNCH_DATE":"2020-02-17","OBJECT_NAME":"STARLINK-1217","BSTAR":"0.00003927900000","GP_ID":"192075715","NORAD_CAT_ID":"45226","PERIAPSIS":"546.460","ECCENTRICITY":"0.00010610","ELEMENT_SET_NO":"999","OBJECT_ID":"2020-012BA","MEAN_ELEMENT_THEORY":"SGP4","EPHEMERIS_TYPE":"0","SITE":"AFETR","INCLINATION":"53.0554","REV_AT_EPOCH":"10317","CLASSIFICATION_TYPE":"U","SEMIMAJOR_AXIS":"6925.330","FILE":"3245363","DECAY_DATE":null,"TIME_SYSTEM":"UTC","CENTER_NAME":"EARTH","TLE_LINE2":"2 45226  53.0554  80.6460 0001061  92.5451 267.5659 15.06406042103171","COUNTRY_CODE":"US","MEAN_MOTION":"15.06406042","MEAN_ANOMALY":"267.5659"},{"REV_AT_EPOCH":"10319","EPHEMERIS_TYPE":"0","SITE":"AFETR","INCLINATION":"53.0535","MEAN_ELEMENT_THEORY":"SGP4","DECAY_DATE":null,"FILE":"3245895","SEMIMAJOR_AXIS":"6925.301","CLASSIFICATION_TYPE":"U","COUNTRY_CODE":"US","TLE_LINE2":"2 45227  53.0535  80.2560 0001525  94.9759 265.1404 15.06415378103196","CENTER_NAME":"EARTH","TIME_SYSTEM":"UTC","MEAN_MOTION":"15.06415378","MEAN_ANOMALY":"265.1404","RA_OF_ASC_NODE":"80.2560","PERIOD":"95.591","TLE_LINE1":"1 45227U 20012BB  21354.62182378  .00009030  00000-0  62410-3 0  9995","OBJECT_TYPE":"PAYLOAD","ARG_OF_PERICENTER":"94.9759","RCS_SIZE":"LARGE","REF_FRAME":"TEME","EPOCH":"2021-12-20T14:55:25.574592","OBJECT_NAME":"STARLINK-1221","LAUNCH_DATE":"2020-02-17","MEAN_MOTION_DDOT":"0.0000000000000","MEAN_MOTION_DOT":"0.00009030","APOAPSIS":"548.223","ELEMENT_SET_NO":"999","OBJECT_ID":"2020-012BB","PERIAPSIS":"546.110","ECCENTRICITY":"0.00015250","GP_ID":"192111304","NORAD_CAT_ID":"45227","BSTAR":"0.00062410000000"}];
